{
  "type": "FeatureCollection",
  "features": [
    {
      "type": "Feature",
      "properties": {
        "norad_id": 31440,
        "name": "FENGYUN 1C DEB",
        "group": "fengyun-1c-debris",
        "lat": -63.10385344685913,
        "lon": 107.49896387923103,
        "alt_km": 749.4997359583876,
        "timestamp": "2025-12-27T14:26:30.804235+00:00",
        "meta_object_name": "FENGYUN 1C DEB",
        "meta_object_id": "1999-025BUC",
        "meta_epoch": "2025-12-24T23:13:50.173248",
        "meta_mean_motion": 14.36819252,
        "meta_eccentricity": 0.00372153,
        "meta_inclination": 98.745,
        "meta_ra_of_asc_node": 87.1591,
        "meta_arg_of_pericenter": 304.5091,
        "meta_mean_anomaly": 55.2582,
        "meta_ephemeris_type": 0,
        "meta_classification_type": "U",
        "meta_norad_cat_id": 31440,
        "meta_element_set_no": 999,
        "meta_rev_at_epoch": 96501,
        "meta_bstar": 0.0019081649,
        "meta_mean_motion_dot": 5.639e-05,
        "meta_mean_motion_ddot": 0,
        "tle_line1": "1 31440U 99025BUC 25358.96794182  .00005639  00000+0  19082-2 0  9990",
        "tle_line2": "2 31440  98.7450  87.1591 0037215 304.5091  55.2582 14.36819252965017"
      },
      "geometry": {
        "type": "Point",
        "coordinates": [
          107.49896387923103,
          -63.10385344685913
        ]
      }
    },
    {
      "type": "Feature",
      "properties": {
        "norad_id": 31441,
        "name": "FENGYUN 1C DEB",
        "group": "fengyun-1c-debris",
        "lat": -30.06820892602758,
        "lon": 41.20703398184621,
        "alt_km": 633.3384240303749,
        "timestamp": "2025-12-27T14:26:30.804246+00:00",
        "meta_object_name": "FENGYUN 1C DEB",
        "meta_object_id": "1999-025BUD",
        "meta_epoch": "2025-12-27T02:05:43.393056",
        "meta_mean_motion": 14.76269445,
        "meta_eccentricity": 0.00999411,
        "meta_inclination": 99.3113,
        "meta_ra_of_asc_node": 226.0652,
        "meta_arg_of_pericenter": 291.416,
        "meta_mean_anomaly": 67.6407,
        "meta_ephemeris_type": 0,
        "meta_classification_type": "U",
        "meta_norad_cat_id": 31441,
        "meta_element_set_no": 999,
        "meta_rev_at_epoch": 64302,
        "meta_bstar": 0.0067795282,
        "meta_mean_motion_dot": 0.00051263,
        "meta_mean_motion_ddot": 0,
        "tle_line1": "1 31441U 99025BUD 25361.08730779  .00051263  00000+0  67795-2 0  9998",
        "tle_line2": "2 31441  99.3113 226.0652 0099941 291.4160  67.6407 14.76269445643022"
      },
      "geometry": {
        "type": "Point",
        "coordinates": [
          41.20703398184621,
          -30.06820892602758
        ]
      }
    },
    {
      "type": "Feature",
      "properties": {
        "norad_id": 31442,
        "name": "FENGYUN 1C DEB",
        "group": "fengyun-1c-debris",
        "lat": 45.19205699942349,
        "lon": -83.92978481280149,
        "alt_km": 829.0122353982906,
        "timestamp": "2025-12-27T14:26:30.804256+00:00",
        "meta_object_name": "FENGYUN 1C DEB",
        "meta_object_id": "1999-025BUE",
        "meta_epoch": "2025-12-24T12:08:00.229344",
        "meta_mean_motion": 14.33951774,
        "meta_eccentricity": 0.00785047,
        "meta_inclination": 98.5303,
        "meta_ra_of_asc_node": 84.326,
        "meta_arg_of_pericenter": 337.665,
        "meta_mean_anomaly": 22.1123,
        "meta_ephemeris_type": 0,
        "meta_classification_type": "U",
        "meta_norad_cat_id": 31442,
        "meta_element_set_no": 999,
        "meta_rev_at_epoch": 97529,
        "meta_bstar": 0.00033349655,
        "meta_mean_motion_dot": 9.19e-06,
        "meta_mean_motion_ddot": 0,
        "tle_line1": "1 31442U 99025BUE 25358.50555821  .00000919  00000+0  33350-3 0  9998",
        "tle_line2": "2 31442  98.5303  84.3260 0078504 337.6650  22.1123 14.33951774975298"
      },
      "geometry": {
        "type": "Point",
        "coordinates": [
          -83.92978481280149,
          45.19205699942349
        ]
      }
    },
    {
      "type": "Feature",
      "properties": {
        "norad_id": 31443,
        "name": "FENGYUN 1C DEB",
        "group": "fengyun-1c-debris",
        "lat": -80.66595980787389,
        "lon": -176.77514433370376,
        "alt_km": 843.710065149643,
        "timestamp": "2025-12-27T14:26:30.804267+00:00",
        "meta_object_name": "FENGYUN 1C DEB",
        "meta_object_id": "1999-025BUF",
        "meta_epoch": "2025-12-25T13:07:42.426912",
        "meta_mean_motion": 14.48809364,
        "meta_eccentricity": 0.0191122,
        "meta_inclination": 99.21,
        "meta_ra_of_asc_node": 100.1881,
        "meta_arg_of_pericenter": 60.1891,
        "meta_mean_anomaly": 301.8152,
        "meta_ephemeris_type": 0,
        "meta_classification_type": "U",
        "meta_norad_cat_id": 31443,
        "meta_element_set_no": 999,
        "meta_rev_at_epoch": 67127,
        "meta_bstar": 0.001089,
        "meta_mean_motion_dot": 5.132e-05,
        "meta_mean_motion_ddot": 0,
        "tle_line1": "1 31443U 99025BUF 25359.54701883  .00005132  00000+0  10890-2 0  9990",
        "tle_line2": "2 31443  99.2100 100.1881 0191122  60.1891 301.8152 14.48809364671278"
      },
      "geometry": {
        "type": "Point",
        "coordinates": [
          -176.77514433370376,
          -80.66595980787389
        ]
      }
    },
    {
      "type": "Feature",
      "properties": {
        "norad_id": 31444,
        "name": "FENGYUN 1C DEB",
        "group": "fengyun-1c-debris",
        "lat": -58.715259107981694,
        "lon": -39.97264628021554,
        "alt_km": 665.0783496158983,
        "timestamp": "2025-12-27T14:26:30.804277+00:00",
        "meta_object_name": "FENGYUN 1C DEB",
        "meta_object_id": "1999-025BUG",
        "meta_epoch": "2025-12-26T14:12:42.346656",
        "meta_mean_motion": 14.70204785,
        "meta_eccentricity": 0.0062333,
        "meta_inclination": 98.929,
        "meta_ra_of_asc_node": 303.928,
        "meta_arg_of_pericenter": 30.6069,
        "meta_mean_anomaly": 329.8748,
        "meta_ephemeris_type": 0,
        "meta_classification_type": "U",
        "meta_norad_cat_id": 31444,
        "meta_element_set_no": 999,
        "meta_rev_at_epoch": 97692,
        "meta_bstar": 0.0021857,
        "meta_mean_motion_dot": 0.00013532,
        "meta_mean_motion_ddot": 0,
        "tle_line1": "1 31444U 99025BUG 25360.59215679  .00013532  00000+0  21857-2 0  9999",
        "tle_line2": "2 31444  98.9290 303.9280 0062333  30.6069 329.8748 14.70204785976923"
      },
      "geometry": {
        "type": "Point",
        "coordinates": [
          -39.97264628021554,
          -58.715259107981694
        ]
      }
    },
    {
      "type": "Feature",
      "properties": {
        "norad_id": 31447,
        "name": "FENGYUN 1C DEB",
        "group": "fengyun-1c-debris",
        "lat": 43.47413168921912,
        "lon": 34.5699403075558,
        "alt_km": 809.054572808298,
        "timestamp": "2025-12-27T14:26:30.804287+00:00",
        "meta_object_name": "FENGYUN 1C DEB",
        "meta_object_id": "1999-025BUK",
        "meta_epoch": "2025-12-14T21:01:38.356896",
        "meta_mean_motion": 14.2403744,
        "meta_eccentricity": 0.02304397,
        "meta_inclination": 98.9919,
        "meta_ra_of_asc_node": 30.1793,
        "meta_arg_of_pericenter": 349.1545,
        "meta_mean_anomaly": 10.471,
        "meta_ephemeris_type": 0,
        "meta_classification_type": "U",
        "meta_norad_cat_id": 31447,
        "meta_element_set_no": 999,
        "meta_rev_at_epoch": 64882,
        "meta_bstar": 0.00018562598,
        "meta_mean_motion_dot": 5.08e-06,
        "meta_mean_motion_ddot": 0,
        "tle_line1": "1 31447U 99025BUK 25348.87613839  .00000508  00000+0  18563-3 0  9999",
        "tle_line2": "2 31447  98.9919  30.1793 0230439 349.1545  10.4710 14.24037440648821"
      },
      "geometry": {
        "type": "Point",
        "coordinates": [
          34.5699403075558,
          43.47413168921912
        ]
      }
    },
    {
      "type": "Feature",
      "properties": {
        "norad_id": 31448,
        "name": "FENGYUN 1C DEB",
        "group": "fengyun-1c-debris",
        "lat": -76.39563737689714,
        "lon": 154.3248004100632,
        "alt_km": 812.4304307629745,
        "timestamp": "2025-12-27T14:26:30.804297+00:00",
        "meta_object_name": "FENGYUN 1C DEB",
        "meta_object_id": "1999-025BUL",
        "meta_epoch": "2025-12-26T20:25:01.563456",
        "meta_mean_motion": 14.27857708,
        "meta_eccentricity": 0.00594446,
        "meta_inclination": 98.5,
        "meta_ra_of_asc_node": 11.7604,
        "meta_arg_of_pericenter": 162.7966,
        "meta_mean_anomaly": 197.5249,
        "meta_ephemeris_type": 0,
        "meta_classification_type": "U",
        "meta_norad_cat_id": 31448,
        "meta_element_set_no": 999,
        "meta_rev_at_epoch": 64505,
        "meta_bstar": 0.00063941296,
        "meta_mean_motion_dot": 1.57e-05,
        "meta_mean_motion_ddot": 0,
        "tle_line1": "1 31448U 99025BUL 25360.85071254  .00001570  00000+0  63941-3 0  9991",
        "tle_line2": "2 31448  98.5000  11.7604 0059444 162.7966 197.5249 14.27857708645052"
      },
      "geometry": {
        "type": "Point",
        "coordinates": [
          154.3248004100632,
          -76.39563737689714
        ]
      }
    }
  ]
}